RADUGA 1                
1 08513U 75123A   25068.77092002 -.00000081  00000+0  00000+0 0  9991
2 08513   4.0048 274.1507 0004839 265.2015 337.5994  1.00295812190150
RADUGA 2                
1 09416U 76092A   25068.69697444 -.00000217  00000+0  00000+0 0  9993
2 09416   4.6778 276.6212 0029207  26.5300 201.7623  1.00273606124683
RADUGA 3                
1 10159U 77071A   25068.62961214 -.00000242  00000+0  00000+0 0  9997
2 10159   5.3110 279.8521 0008081 284.6960 280.7034  1.00195618172380
RADUGA 4                
1 10987U 78073A   25068.76605473  .00000100  00000+0  00000+0 0  9998
2 10987   5.9676 284.2073 0010669  25.5978 180.8012  1.00321620114948
RADUGA 5                
1 11343U 79035A   25068.69985190 -.00000088  00000+0  00000+0 0  9999
2 11343   6.4577 287.5506 0003684 206.1176 359.3421  1.00247285124698
RADUGA 6                
1 11708U 80016A   25068.64142007 -.00000226  00000+0  00000+0 0  9996
2 11708   6.8599 291.2613 0001458 305.3630 247.5457  1.00339981117500
RADUGA 7                
1 12003U 80081A   25068.86619933  .00000092  00000+0  00000+0 0  9998
2 12003   7.0733 293.5826 0010210 304.7864  73.2418  1.00310186118655
RADUGA 8                
1 12351U 81027A   25068.62406000 -.00000321  00000+0  00000+0 0  9994
2 12351   7.4149 293.9744 0079594 259.8827 294.5620  1.00411301117886
RADUGA 9                
1 12618U 81069A   25068.69872245 -.00000057  00000+0  00000+0 0  9997
2 12618   7.6868 297.6223 0001393 158.3736  30.7724  1.00354921 42683
RADUGA 10               
1 12897U 81102A   25068.70167639 -.00000178  00000+0  00000+0 0  9994
2 12897   7.7910 298.7958 0003281 230.5950 333.3467  1.00255120112682
RADUGA 11               
1 13669U 82113A   25068.35253007 -.00000124  00000+0  00000+0 0  9992
2 13669  10.1260 314.3450 0040581 282.3238 260.5635  0.97709326116999
RADUGA 12               
1 13974U 83028A   25068.70089446 -.00000148  00000+0  00000+0 0  9996
2 13974   9.1588 309.6488 0001268  32.5792 156.1277  1.00293935164721
RADUGA 13               
1 14307U 83088A   25068.76622850 -.00000048  00000+0  00000+0 0  9990
2 14307  10.4254 315.7633 0017080  56.9954 118.3807  0.98173210114381
RADUGA 14               
1 14725U 84016A   25068.70063382 -.00000127  00000+0  00000+0 0  9997
2 14725   9.4722 313.9040 0002214 151.2349  32.1175  1.00245566113440
RADUGA 15               
1 15057U 84063A   25068.70393528 -.00000300  00000+0  00000+0 0  9999
2 15057   9.6235 314.9086 0003157 201.4774 358.7453  1.00370599136422
RADUGA 16               
1 15946U 85070A   25068.17121939 -.00000276  00000+0  00000+0 0  9993
2 15946  10.2279 319.8343 0001468 282.0300 275.9189  1.00182160117563
RADUGA 17               
1 16250U 85107A   25068.16678850 -.00000164  00000+0  00000+0 0  9997
2 16250  10.3967 321.3517 0012640 223.0495 309.4677  1.00129133147011
RADUGA 18               
1 16497U 86007A   25068.83361919 -.00000072  00000+0  00000+0 0  9997
2 16497  11.2721 324.1828 0071404 189.9631 341.1183  0.98813278141276
RADUGA 19               
1 17046U 86082A   25067.23639632 -.00000011  00000+0  00000+0 0  9997
2 17046  11.8420 328.3307 0010923 180.5163 359.7984  0.98458922138364
RADUGA 20               
1 17611U 87028A   25068.36956715 -.00000123  00000+0  00000+0 0  9999
2 17611  13.9434 331.5753 0028280 162.2358  15.1194  0.95961229133850
RADUGA 21               
1 18631U 87100A   25068.37199980  .00000077  00000+0  00000+0 0  9994
2 18631  11.9712 328.5753 0000984 203.5875 350.3454  1.00207254136427
RADUGA 22               
1 19596U 88095A   25068.60738957 -.00000384  00000+0  00000+0 0  9990
2 19596  12.1297 333.2612 0005452 184.3311 346.6485  1.00341958116994
RADUGA 23               
1 19928U 89030A   25068.83622560  .00000112  00000+0  00000+0 0  9994
2 19928  12.3457 335.1108 0019907 195.2267 338.9943  1.00328972130197
RADUGA-1 1              
1 20083U 89048A   25067.45475813 -.00000001  00000+0  00000+0 0  9999
2 20083  13.2104 338.3284 0019601 141.2462 105.6216  0.98707155126679
RADUGA 24               
1 20367U 89098A   25068.85252980  .00000096  00000+0  00000+0 0  9995
2 20367  13.0055 337.1108 0002277 259.2912 285.1358  1.00246690128310
RADUGA 25               
1 20499U 90016A   25068.15016091 -.00000299  00000+0  00000+0 0  9993
2 20499  12.8093 337.9266 0003991 202.8488 354.5344  1.00324106128241
RADUGA 26               
1 21016U 90112A   25068.70280583 -.00000246  00000+0  00000+0 0  9998
2 21016  13.2539 341.1797 0004419 115.9563  51.4626  1.00312397125586
RADUGA-1 2              
1 21038U 90116A   25068.80684747  .00000024  00000+0  00000+0 0  9990
2 21038  13.2952 341.2251 0005266 134.0582  40.7656  1.00315431125259
RADUGA 27               
1 21132U 91014A   25068.04697730  .00000101  00000+0  00000+0 0  9991
2 21132  13.7744 340.3793 0000232 118.5656 109.8647  1.00230370124643
RADUGA 28               
1 21821U 91087A   25068.70454344 -.00000295  00000+0  00000+0 0  9996
2 21821  13.7090 344.4190 0004929 169.4916   4.1700  1.00196594121664
RADUGA 29               
1 22557U 93013A   25064.80660388  .00000040  00000+0  00000+0 0  9995
2 22557  14.0958 348.5951 0004755 167.4634 309.3704  1.00257682116989
RADUGA 30               
1 22836U 93062A   25068.84187282 -.00000065  00000+0  00000+0 0  9992
2 22836  14.2271 350.5839 0003901 307.1066 242.3612  1.00269687 41340
RADUGA-1 3              
1 22981U 94008A   25066.84725351 -.00000142  00000+0  00000+0 0  9993
2 22981  14.3555 351.7024 0001165 188.6885   9.1593  1.00215080113803
RADUGA 31               
1 23010U 94012A   25067.82822516 -.00000187  00000+0  00000+0 0  9991
2 23010  14.3254 351.7078 0002484 142.1488  51.6094  1.00338982113682
RADUGA 32               
1 23448U 94087A   25068.84204659 -.00000075  00000+0  00000+0 0  9999
2 23448  14.4314 354.4539 0007408 247.3935 299.3457  1.00268836128223
RADUGA-1 4              
1 25642U 99010A   25067.82229179  .00000095  00000+0  00000+0 0  9990
2 25642  15.5135   5.4945 0006101 267.9102 232.7770  1.00320464 95285
RADUGA-1 5              
1 26477U 00049A   25068.41225406  .00000050  00000+0  00000+0 0  9997
2 26477  13.7021  11.4600 0001898  72.2012 285.5725  1.00320617 89757
RADUGA-1 6              
1 26936U 01045A   25068.47964891 -.00000088  00000+0  00000+0 0  9990
2 26936  14.1688  18.0055 0017979 198.5069 167.1607  0.97744189 84061
RADUGA-1 7              
1 28194U 04010A   25068.78166473 -.00000373  00000+0  00000+0 0  9994
2 28194  13.1378  24.3931 0004456 229.8741 320.7368  1.00305794 76767
RADUGA-1M 1             
1 32373U 07058A   25068.88620338 -.00000201  00000+0  00000+0 0  9999
2 32373   9.1347  56.1084 0002151 290.2450  73.1358  0.99395767 47787
RADUGA-1 8              
1 34264U 09010A   25067.24824284 -.00000277  00000+0  00000+0 0  9998
2 34264  11.1981  45.9609 0011021  16.2823 132.7445  0.99823015 58525
RADUGA-1M 2             
1 36358U 10002A   25068.89358821 -.00000251  00000+0  00000+0 0  9990
2 36358   2.4066  84.7387 0007873 243.7487 130.5919  0.98969039 45439
RADUGA-1M 3             
1 39375U 13062A   25068.76370896  .00000138  00000+0  00000+0 0  9996
2 39375   4.7778  78.0954 0000476 293.6691 105.8373  1.00271574 41456
